STARLINK-2270           
1 48000U 21024Z   22179.70805992 -.00000847  00000+0 -37986-4 0  9999
2 48000  53.0554 182.1310 0002013  49.4994 310.6170 15.06393364 71890
STARLINK-2265           
1 48002U 21024AB  22179.80206257 -.00000760  00000+0 -32106-4 0  9994
2 48002  53.0552 201.8213 0001459  73.2750 286.8399 15.06395202 72081
STARLINK-2263           
1 48003U 21024AC  22180.51939359  .00000305  00000+0  39372-4 0  9996
2 48003  53.0543 273.2889 0001377  64.6286 295.4845 15.06394610 70678
STARLINK-2254           
1 48005U 21024AE  22180.49637063  .00001056  00000+0  89848-4 0  9999
2 48005  53.0529 243.3801 0001468  69.0095 291.1051 15.06383311 71101
STARLINK-2271           
1 48008U 21024AH  22179.78817899 -.00000856  00000+0 -38606-4 0  9994
2 48008  53.0549 181.5587 0001533  67.2492 292.8659 15.06392657 72379
STARLINK-2153           
1 48009U 21024AJ  22179.64768004  .00000104  00000+0  25919-4 0  9990
2 48009  53.0573 257.1948 0001700  57.1559 302.9594 15.06385442 71303
STARLINK-2226           
1 48010U 21024AK  22179.66057242  .00000396  00000+0  45477-4 0  9993
2 48010  53.0546 277.1302 0001404  84.8662 275.2487 15.06400906 71029
STARLINK-2272           
1 48011U 21024AL  22179.61723856 -.00000903  00000+0 -41766-4 0  9993
2 48011  53.0552 257.3430 0001427  59.0891 301.0238 15.06392592 71351
STARLINK-2216           
1 48012U 21024AM  22179.78002406  .00009676  00000+0  21026-3 0  9993
2 48012  53.0528 199.5087 0004005 105.3597 254.7852 15.45049540 72186
STARLINK-2243           
1 48013U 21024AN  22179.57348700  .00000208  00000+0  32877-4 0  9990
2 48013  53.0550 242.5379 0001121  72.9143 287.1968 15.06402221 71506
STARLINK-2283           
1 48014U 21024AP  22179.78868136 -.00000874  00000+0 -39772-4 0  9996
2 48014  53.0533 206.7240 0001578  50.8863 309.2266 15.06391375 72074
STARLINK-2284           
1 48016U 21024AR  22179.75137251 -.00000879  00000+0 -40146-4 0  9994
2 48016  53.0548 191.9291 0001772  58.9491 301.1672 15.06389860 72275
STARLINK-2239           
1 48017U 21024AS  22180.16436147  .00193771  25109-4  58176-3 0  9993
2 48017  53.0398 185.3456 0004542  34.1568 325.9749 15.91922856 71885
STARLINK-2282           
1 48018U 21024AT  22179.60854458 -.00000307  00000+0 -16832-5 0  9997
2 48018  53.0550 262.5694 0001562  65.5163 294.5989 15.06385191 71288
STARLINK-2285           
1 48019U 21024AU  22179.55784130 -.00001168  00000+0 -59542-4 0  9991
2 48019  53.0533 252.5964 0001562  59.5185 300.5958 15.06385129 71359
STARLINK-2294           
1 48020U 21024AV  22180.06515281 -.00003974  00000+0 -24790-3 0  9993
2 48020  53.0548 205.7140 0002193  58.8095 301.3109 15.06411728 71583
STARLINK-2301           
1 48021U 21024AW  22179.48042291 -.00000351  00000+0 -46553-5 0  9993
2 48021  53.0546 212.9564 0001590  53.9413 306.1724 15.06394404 71916
STARLINK-2298           
1 48022U 21024AX  22179.64079041  .00000155  00000+0  29287-4 0  9999
2 48022  53.0559 272.5076 0001338  69.2147 290.8985 15.06394840 70613
STARLINK-2292           
1 48023U 21024AY  22179.56335743 -.00001943  00000+0 -11156-3 0  9998
2 48023  53.0555 272.5825 0001345  75.1018 285.0120 15.06396072 71137
STARLINK-2278           
1 48026U 21024BB  22180.53782419  .00000476  00000+0  50871-4 0  9992
2 48026  53.0551 273.1886 0001214  83.8628 276.2499 15.06396242 70676
STARLINK-2300           
1 48027U 21024BC  22180.49774479  .00000242  00000+0  35144-4 0  9992
2 48027  53.0535 248.3763 0001356  82.1652 277.9491 15.06400170 71029
STARLINK-2264           
1 48028U 21024BD  22179.55280587  .00001122  00000+0  94242-4 0  9992
2 48028  53.0543 208.0168 0001603  53.0948 307.0188 15.06395099 72034
STARLINK-2299           
1 48029U 21024BE  22179.74028893  .00000083  00000+0  24495-4 0  9992
2 48029  53.0526 271.7871 0001700  58.0141 302.1013 15.06393028 71168
STARLINK-2268           
1 48030U 21024BF  22180.49729097 -.00001021  00000+0 -49656-4 0  9993
2 48030  53.0556 273.3750 0001687  54.6293 305.4853 15.06389003 70672
STARLINK-2267           
1 48031U 21024BG  22180.20379294  .00000930  00000+0  81368-4 0  9995
2 48031  53.0563 159.6973 0002148  50.4671 309.6507 15.06390146 72248
STARLINK-2286           
1 48033U 21024BJ  22180.52538451  .00000873  00000+0  77517-4 0  9991
2 48033  53.0566 268.2610 0001404  71.2142 288.8999 15.06398759 70751
STARLINK-2288           
1 48034U 21024BK  22180.54382444 -.00000735  00000+0 -30423-4 0  9997
2 48034  53.0547 268.1750 0001394  56.5575 303.5547 15.06395918 70757
STARLINK-2295           
1 48036U 21024BM  22179.68868228 -.00000747  00000+0 -31247-4 0  9999
2 48036  53.0555 272.0224 0001552  68.6062 291.5093 15.06387386 70627
BCCSAT-1                
1 48041U 21022AK  22179.69668498  .00002954  00000+0  18872-3 0  9999
2 48041  97.5306  79.7429 0017072  94.7865 265.5314 15.09302736 68537
ONEWEB-0115             
1 48042U 21025A   22179.82101467 -.00000167  00000+0 -49340-3 0  9996
2 48042  87.9060 248.0652 0001953 106.9250 253.2094 13.13469918 63333
ONEWEB-0152             
1 48043U 21025B   22179.67986805 -.00000332  00000+0 -94365-3 0  9998
2 48043  87.8998 248.1324 0002145 107.4885 252.6479 13.13468445 63282
ONEWEB-0153             
1 48044U 21025C   22179.73365093  .00000171  00000+0  43412-3 0  9992
2 48044  87.8930 248.1797 0002149  98.6572 261.4801 13.13467490 63276
ONEWEB-0154             
1 48045U 21025D   22179.73140806  .00000172  00000+0  43629-3 0  9997
2 48045  87.9026 248.1948 0001735 104.3670 255.7652 13.13463560 63236
ONEWEB-0116             
1 48046U 21025E   22179.69779771 -.00000039  00000+0 -14115-3 0  9994
2 48046  87.9018 248.1860 0001675  99.9148 260.2170 13.13471651 63374
ONEWEB-0150             
1 48047U 21025F   22179.74709226 -.00000221  00000+0 -63995-3 0  9992
2 48047  87.9081 248.0392 0002375  94.5284 265.6116 13.13469559 63276
ONEWEB-0107             
1 48048U 21025G   22179.74932559 -.00000241  00000+0 -69427-3 0  9998
2 48048  87.9068 248.0612 0002647  95.8653 264.2778 13.13471424 63254
ONEWEB-0101             
1 48049U 21025H   22179.71346464  .00000320  00000+0  84076-3 0  9993
2 48049  87.9064 248.0900 0002380 103.2589 256.8805 13.13471440 63220
ONEWEB-0113             
1 48050U 21025J   22179.68881343 -.00000250  00000+0 -71929-3 0  9998
2 48050  87.9015 248.1806 0001887 101.9267 258.2074 13.13470985 63309
ONEWEB-0112             
1 48051U 21025K   22179.75381560 -.00000287  00000+0 -82104-3 0  9990
2 48051  87.9068 248.0508 0002062 100.1151 260.0211 13.13468919 63336
ONEWEB-0156             
1 48052U 21025L   22179.68659177 -.00000241  00000+0 -69541-3 0  9995
2 48052  87.9020 248.1591 0002022  98.1179 262.0179 13.13471791 63292
ONEWEB-0161             
1 48053U 21025M   22179.73588247  .00000007  00000+0 -14840-4 0  9993
2 48053  87.9064 248.0945 0002251 101.5662 258.5720 13.13471213 63238
ONEWEB-0158             
1 48054U 21025N   22179.70002891  .00000097  00000+0  23126-3 0  9991
2 48054  87.9014 248.1700 0001730 103.0601 257.0721 13.13470472 63359
ONEWEB-0157             
1 48055U 21025P   22179.72243983  .00000299  00000+0  78311-3 0  9993
2 48055  87.8989 248.1193 0002378  94.3455 265.7946 13.13471801 63299
ONEWEB-0162             
1 48056U 21025Q   22179.68435759 -.00000257  00000+0 -73914-3 0  9993
2 48056  87.9065 248.0788 0002036  94.3142 265.8220 13.13469841 63263
ONEWEB-0155             
1 48057U 21025R   22179.70674498  .00000240  00000+0  62279-3 0  9994
2 48057  87.8970 248.0882 0002110 104.0395 256.0969 13.13472898 63409
ONEWEB-0149             
1 48058U 21025S   22179.72691999  .00000229  00000+0  59174-3 0  9999
2 48058  87.9011 248.1267 0002075  82.4147 277.7218 13.13468205 63212
ONEWEB-0148             
1 48059U 21025T   22179.69107399 -.00000151  00000+0 -44820-3 0  9990
2 48059  87.9038 248.1101 0002629  80.2758 279.8668 13.13469392 63331
ONEWEB-0160             
1 48060U 21025U   22180.47076828  .00000218  00000+0  56244-3 0  9997
2 48060  87.9044 247.9498 0001018 126.8465 233.2757 13.13471255 63388
ONEWEB-0163             
1 48061U 21025V   22179.69329619 -.00000112  00000+0 -34066-3 0  9992
2 48061  87.9026 248.2064 0002673  96.9656 263.1778 13.13471840 63418
ONEWEB-0159             
1 48062U 21025W   22179.68211017 -.00000295  00000+0 -84163-3 0  9999
2 48062  87.9074 248.1183 0002565  92.4891 267.6531 13.13471928 63328
ONEWEB-0164             
1 48063U 21025X   22179.74035090 -.00000067  00000+0 -21949-3 0  9992
2 48063  87.9037 248.2150 0002148 109.8174 250.3186 13.13469955 63318
ONEWEB-0167             
1 48064U 21025Y   22179.69555798 -.00000043  00000+0 -15225-3 0  9993
2 48064  87.8990 248.1242 0002418  95.3074 264.8331 13.13471249 63293
ONEWEB-0166             
1 48065U 21025Z   22179.71572841  .00000530  00000+0  14162-2 0  9992
2 48065  87.9060 248.0593 0002292  97.1565 262.9825 13.13470149 63370
ONEWEB-0151             
1 48066U 21025AA  22179.71795221  .00000356  00000+0  94116-3 0  9996
2 48066  87.9005 248.1379 0002119 111.5707 248.5648 13.13470312 63319
ONEWEB-0170             
1 48067U 21025AB  22180.18174244  .00000334  00000+0  87993-3 0  9997
2 48067  87.9033 248.1170 0001890 129.1322 230.9976 13.13469923 63330
ONEWEB-0168             
1 48068U 21025AC  22179.71124674  .00000305  00000+0  79945-3 0  9993
2 48068  87.9013 248.1708 0002218  99.3849 260.7531 13.13471593 63281
ONEWEB-0173             
1 48069U 21025AD  22179.70452370  .00000147  00000+0  36658-3 0  9998
2 48069  87.9015 248.1813 0002606 103.2716 256.8704 13.13471996 63522
ONEWEB-0171             
1 48070U 21025AE  22179.73811278 -.00000076  00000+0 -24385-3 0  9996
2 48070  87.9072 248.0781 0002282  91.1650 268.9741 13.13467145 63348
ONEWEB-0172             
1 48071U 21025AF  22179.71908368  .00000326  00000+0  85647-3 0  9996
2 48071  87.8995 248.2105 0002305 105.2376 254.9008 13.13470852 64231
